{
  "links" : {
    "next" : "https://api.nasa.gov/neo/rest/v1/feed?start_date=2001-06-16&end_date=2001-06-16&detailed=true&api_key=t0TVs3DtDT2H8Oy2Zy8m2eVrNsAVKAexjcZXUckd",
    "prev" : "https://api.nasa.gov/neo/rest/v1/feed?start_date=2001-06-14&end_date=2001-06-14&detailed=true&api_key=t0TVs3DtDT2H8Oy2Zy8m2eVrNsAVKAexjcZXUckd",
    "self" : "https://api.nasa.gov/neo/rest/v1/feed?start_date=2001-06-15&end_date=2001-06-15&detailed=true&api_key=t0TVs3DtDT2H8Oy2Zy8m2eVrNsAVKAexjcZXUckd"
  },
  "element_count" : 5,
  "near_earth_objects" : {
    "2001-06-15" : [ {
      "links" : {
        "self" : "https://api.nasa.gov/neo/rest/v1/neo/3743902?api_key=t0TVs3DtDT2H8Oy2Zy8m2eVrNsAVKAexjcZXUckd"
      },
      "neo_reference_id" : "3743902",
      "name" : "(2016 CV246)",
      "nasa_jpl_url" : "http://ssd.jpl.nasa.gov/sbdb.cgi?sstr=3743902",
      "absolute_magnitude_h" : 25.4,
      "estimated_diameter" : {
        "kilometers" : {
          "estimated_diameter_min" : 0.022108281,
          "estimated_diameter_max" : 0.0494356193
        },
        "meters" : {
          "estimated_diameter_min" : 22.1082810359,
          "estimated_diameter_max" : 49.435619262
        },
        "miles" : {
          "estimated_diameter_min" : 0.0137374447,
          "estimated_diameter_max" : 0.0307178602
        },
        "feet" : {
          "estimated_diameter_min" : 72.5337327539,
          "estimated_diameter_max" : 162.1903570994
        }
      },
      "is_potentially_hazardous_asteroid" : false,
      "close_approach_data" : [ {
        "close_approach_date" : "2001-06-15",
        "epoch_date_close_approach" : 992588400000,
        "relative_velocity" : {
          "kilometers_per_second" : "4.1066399581",
          "kilometers_per_hour" : "14783.9038492301",
          "miles_per_hour" : "9186.1429223174"
        },
        "miss_distance" : {
          "astronomical" : "0.2271099398",
          "lunar" : "88.3457641602",
          "kilometers" : "33975164",
          "miles" : "21111188"
        },
        "orbiting_body" : "Earth"
      } ],
      "orbital_data" : {
        "orbit_id" : "18",
        "orbit_determination_date" : "2017-04-06 08:28:15",
        "orbit_uncertainty" : "4",
        "minimum_orbit_intersection" : ".00645835",
        "jupiter_tisserand_invariant" : "5.832",
        "epoch_osculation" : "2458000.5",
        "eccentricity" : ".1502076520442074",
        "semi_major_axis" : "1.051069856417495",
        "inclination" : "7.105161939551787",
        "ascending_node_longitude" : "337.6349471091136",
        "orbital_period" : "393.5915795381599",
        "perihelion_distance" : ".8931911211505811",
        "perihelion_argument" : "79.53045670368672",
        "aphelion_distance" : "1.20894859168441",
        "perihelion_time" : "2458142.800806439927",
        "mean_anomaly" : "229.844038893096",
        "mean_motion" : ".9146537139397742",
        "equinox" : "J2000"
      }
    }, {
      "links" : {
        "self" : "https://api.nasa.gov/neo/rest/v1/neo/3775156?api_key=t0TVs3DtDT2H8Oy2Zy8m2eVrNsAVKAexjcZXUckd"
      },
      "neo_reference_id" : "3775156",
      "name" : "(2017 LA)",
      "nasa_jpl_url" : "http://ssd.jpl.nasa.gov/sbdb.cgi?sstr=3775156",
      "absolute_magnitude_h" : 20.151,
      "estimated_diameter" : {
        "kilometers" : {
          "estimated_diameter_min" : 0.2479447841,
          "estimated_diameter_max" : 0.5544213918
        },
        "meters" : {
          "estimated_diameter_min" : 247.9447840635,
          "estimated_diameter_max" : 554.4213918325
        },
        "miles" : {
          "estimated_diameter_min" : 0.1540656984,
          "estimated_diameter_max" : 0.3445013747
        },
        "feet" : {
          "estimated_diameter_min" : 813.4671653469,
          "estimated_diameter_max" : 1818.9678791798
        }
      },
      "is_potentially_hazardous_asteroid" : false,
      "close_approach_data" : [ {
        "close_approach_date" : "2001-06-15",
        "epoch_date_close_approach" : 992588400000,
        "relative_velocity" : {
          "kilometers_per_second" : "19.7599874014",
          "kilometers_per_hour" : "71135.954645135",
          "miles_per_hour" : "44201.1158182507"
        },
        "miss_distance" : {
          "astronomical" : "0.4158501955",
          "lunar" : "161.7657318115",
          "kilometers" : "62210304",
          "miles" : "38655692"
        },
        "orbiting_body" : "Earth"
      } ],
      "orbital_data" : {
        "orbit_id" : "8",
        "orbit_determination_date" : "2017-07-02 06:21:54",
        "orbit_uncertainty" : "6",
        "minimum_orbit_intersection" : ".144879",
        "jupiter_tisserand_invariant" : "5.400",
        "epoch_osculation" : "2458000.5",
        "eccentricity" : ".239960136298291",
        "semi_major_axis" : "1.099207080220104",
        "inclination" : "41.70743526929814",
        "ascending_node_longitude" : "79.31492855215613",
        "orbital_period" : "420.9375825063513",
        "perihelion_distance" : ".8354411994304412",
        "perihelion_argument" : "11.29743377160795",
        "aphelion_distance" : "1.362972961009766",
        "perihelion_time" : "2458173.245184464495",
        "mean_anomaly" : "212.2624992595433",
        "mean_motion" : ".8552336853755941",
        "equinox" : "J2000"
      }
    } ]
  }
}